{"fetched_at":"2026-06-14T03:48:42Z","count":16735,"tles":[{"name":"LEMUR-2-LANGER2SPACE","line1":"1 63358U 25061H   26164.44746057  .00003805  00000+0  21124-3 0  9993","line2":"2 63358  97.5605 140.1820 0014813 270.8657  89.0877 15.14261102 67057","category":"Other"},{"name":"LEMUR-2-HUBBLE-4","line1":"1 64565U 25135AP  26164.58474310  .00001542  00000+0  15303-3 0  9999","line2":"2 64565  97.7696 278.5346 0001170 332.0060  28.1096 14.93187722 53334","category":"Other"},{"name":"LEMUR-2-HUBBLE-5","line1":"1 64840U 25135BT  26164.60804586  .00001754  00000+0  16931-3 0  9993","line2":"2 64840  97.7714 279.1856 0005369   6.9600 353.1694 14.94127275 53372","category":"Other"},{"name":"LEMUR-2-AFFIE-WAUWIE","line1":"1 66295U 25248C   26164.19609107  .00014630  00000+0  55126-3 0  9996","line2":"2 66295  45.3883 136.6090 0007861  56.5592 303.6048 15.27025697 33981","category":"Other"},{"name":"LEMUR-2-KRISH","line1":"1 64561U 25135AK  26164.59670875  .00005787  00000+0  51863-3 0  9996","line2":"2 64561  97.7738 279.4976 0001654 104.3226 255.8179 14.96175199 53381","category":"Other"},{"name":"LEMUR-2-THERMORAPTOR","line1":"1 63354U 25061D   26164.44003684  .00003906  00000+0  21781-3 0  9992","line2":"2 63354  97.5688 140.5251 0017121 268.7603  91.1667 15.14057613 67048","category":"Other"},{"name":"LEMUR-2-NEUROSPICY","line1":"1 63355U 25061E   26164.47808230  .00004792  00000+0  26565-3 0  9995","line2":"2 63355  97.5616 140.1920 0015033 272.6987  87.2523 15.14173321 67051","category":"Other"},{"name":"LEMUR-2-ARIANNA","line1":"1 62699U 25009CU  26164.49477124  .00008198  00000+0  62262-3 0  9991","line2":"2 62699  97.6900 245.9071 0003793 126.8593 233.2980 15.02434675 77007","category":"Other"},{"name":"LEMUR-2-TILLINFINITY","line1":"1 63356U 25061F   26164.18447966  .00003780  00000+0  20691-3 0  9999","line2":"2 63356  97.5599 140.1881 0016209 260.5123  99.4277 15.14756115 67039","category":"Other"},{"name":"LEMUR-2-KARENDARRELL","line1":"1 64841U 25135BU  26164.58284756  .00008372  00000+0  67595-3 0  9997","line2":"2 64841  97.7675 280.7969 0009420 216.0569 144.0020 15.00063129 53478","category":"Other"},{"name":"LEMUR-2-LEIA-PHILIP","line1":"1 63246U 25052AN  26164.59465456  .00001644  00000+0  14675-3 0  9998","line2":"2 63246  97.6847  56.6061 0002211 222.1313 137.9739 14.97312273 68134","category":"Other"},{"name":"LEMUR-2-KREMPEL-BRO1","line1":"1 63357U 25061G   26164.48777616  .00004516  00000+0  24768-3 0  9998","line2":"2 63357  97.5601 140.4066 0016910 260.6950  99.2370 15.14563962 67072","category":"Other"},{"name":"LEMUR-2-BALTO","line1":"1 63395U 25052BH  26164.65133582  .00006235  00000+0  50508-3 0  9998","line2":"2 63395  97.6897  58.3019 0006883  67.0578 293.1371 15.00051082 68235","category":"Other"},{"name":"LEMUR-2-SEJONG-2","line1":"1 64586U 25135BL  26164.56100512  .00003992  00000+0  35492-3 0  9992","line2":"2 64586  97.7689 279.6070 0004141 355.6910   4.4275 14.96672821 53407","category":"Other"},{"name":"LEMUR-2-LUCILLE-ROSE","line1":"1 65403U 25135BV  26164.55667705  .00007338  00000+0  59226-3 0  9991","line2":"2 65403  97.7772 280.7861 0010862 296.9669  63.0444 15.00113507 48090","category":"Other"},{"name":"LEMUR-2-ALISIA","line1":"1 62706U 25009DB  26164.20702837  .00007667  00000+0  57834-3 0  9990","line2":"2 62706  97.6968 246.4038 0001513 190.0957 170.0238 15.02717056 99560","category":"Other"},{"name":"LEMUR-2-STAS-GORBUK","line1":"1 66686U 25276W   26164.57525095  .00005855  00000+0  28010-3 0  9997","line2":"2 66686  97.4254 238.1657 0005466  27.5401 332.6122 15.19345449 29866","category":"Other"},{"name":"LEMUR-2-ROUNDTRIPPER","line1":"1 62711U 25009DG  26164.50052906  .00009195  00000+0  67413-3 0  9996","line2":"2 62711  97.7259 247.1845 0004956 142.0958 218.0618 15.03734473 77076","category":"Other"},{"name":"LEMUR-2-KREMPEL-BRO2","line1":"1 63353U 25061C   26164.45777504  .00003988  00000+0  22275-3 0  9990","line2":"2 63353  97.5684 140.4679 0017391 269.9061  90.0178 15.13979743 67047","category":"Other"},{"name":"LEMUR-2-UNTITLED-SC","line1":"1 63351U 25061A   26164.45235120  .00003881  00000+0  22011-3 0  9991","line2":"2 63351  97.5629 139.8413 0016902 278.9767  80.9551 15.13450039 67025","category":"Other"},{"name":"LEMUR-2-ESPERANZA","line1":"1 63352U 25061B   26164.42971753  .00003961  00000+0  22406-3 0  9995","line2":"2 63352  97.5635 139.9113 0016537 278.3273  81.6083 15.13541734 67022","category":"Other"},{"name":"LEMUR-2-MYNAMEISJEFF","line1":"1 62712U 25009DH  26164.49895757  .00008516  00000+0  62466-3 0  9993","line2":"2 62712  97.7308 247.5619 0003155 164.9889 195.1431 15.03744513 77075","category":"Other"},{"name":"LEMUR-2-DELOITTE-1","line1":"1 63259U 25052BB  26164.64357521  .00004450  00000+0  38588-3 0  9998","line2":"2 63259  97.6925  57.4527 0003126 104.5468 255.6101 14.97577352 68166","category":"Other"}]}