OBJECT_NAME,OBJECT_ID,EPOCH,MEAN_MOTION,ECCENTRICITY,INCLINATION,RA_OF_ASC_NODE,ARG_OF_PERICENTER,MEAN_ANOMALY,EPHEMERIS_TYPE,CLASSIFICATION_TYPE,NORAD_CAT_ID,ELEMENT_SET_NO,REV_AT_EPOCH,BSTAR,MEAN_MOTION_DOT,MEAN_MOTION_DDOT
LEMUR-2-ARIANNA,2025-009CU,2026-06-13T11:52:28.235136,15.02434675,.00037934,97.6900,245.9071,126.8593,233.2980,0,U,62699,999,7700,.62262185E-3,.8198E-4,0
LEMUR-2-ALISIA,2025-009DB,2026-06-13T04:58:07.251168,15.02717056,.00015132,97.6968,246.4038,190.0957,170.0238,0,U,62706,999,9956,.57833769E-3,.7667E-4,0
LEMUR-2-ROUNDTRIPPER,2025-009DG,2026-06-13T12:00:45.710784,15.03734473,.00049565,97.7259,247.1845,142.0958,218.0618,0,U,62711,999,7707,.67412586E-3,.9195E-4,0
LEMUR-2-MYNAMEISJEFF,2025-009DH,2026-06-13T11:58:29.934048,15.03744513,.00031551,97.7308,247.5619,164.9889,195.1431,0,U,62712,999,7707,.62465961E-3,.8516E-4,0
LEMUR-2-LEIA-PHILIP,2025-052AN,2026-06-13T14:16:18.153984,14.97312273,.0002211,97.6847,56.6061,222.1313,137.9739,0,U,63246,999,6813,.14675006E-3,.1644E-4,0
LEMUR-2-DELOITTE-1,2025-052BB,2026-06-13T15:26:44.898144,14.97577352,.00031268,97.6925,57.4527,104.5468,255.6101,0,U,63259,999,6816,.3858845E-3,.445E-4,0
LEMUR-2-UNTITLED-SC,2025-061A,2026-06-13T10:51:23.143680,15.13450039,.00169025,97.5629,139.8413,278.9767,80.9551,0,U,63351,999,6702,.22011069E-3,.3881E-4,0
LEMUR-2-ESPERANZA,2025-061B,2026-06-13T10:18:47.594592,15.13541734,.0016537,97.5635,139.9113,278.3273,81.6083,0,U,63352,999,6702,.2240586E-3,.3961E-4,0
LEMUR-2-KREMPEL-BRO2,2025-061C,2026-06-13T10:59:11.763456,15.13979743,.0017391,97.5684,140.4679,269.9061,90.0178,0,U,63353,999,6704,.22275051E-3,.3988E-4,0
LEMUR-2-THERMORAPTOR,2025-061D,2026-06-13T10:33:39.182976,15.14057613,.00171219,97.5688,140.5251,268.7603,91.1667,0,U,63354,999,6704,.21780646E-3,.3906E-4,0
LEMUR-2-NEUROSPICY,2025-061E,2026-06-13T11:28:26.310720,15.14173321,.00150339,97.5616,140.1920,272.6987,87.2523,0,U,63355,999,6705,.26565335E-3,.4792E-4,0
LEMUR-2-TILLINFINITY,2025-061F,2026-06-13T04:25:39.042624,15.14756115,.00162091,97.5599,140.1881,260.5123,99.4277,0,U,63356,999,6703,.20690957E-3,.378E-4,0
LEMUR-2-KREMPEL-BRO1,2025-061G,2026-06-13T11:42:23.860224,15.14563962,.00169107,97.5601,140.4066,260.6950,99.2370,0,U,63357,999,6707,.24767915E-3,.4516E-4,0
LEMUR-2-LANGER2SPACE,2025-061H,2026-06-13T10:44:20.593248,15.14261102,.00148139,97.5605,140.1820,270.8657,89.0877,0,U,63358,999,6705,.21124065E-3,.3805E-4,0
LEMUR-2-BALTO,2025-052BH,2026-06-13T15:37:55.414848,15.00051082,.00068837,97.6897,58.3019,67.0578,293.1371,0,U,63395,999,6823,.50508238E-3,.6235E-4,0
LEMUR-2-KRISH,2025-135AK,2026-06-13T14:19:15.636000,14.96175199,.00016546,97.7738,279.4976,104.3226,255.8179,0,U,64561,999,5338,.51863206E-3,.5787E-4,0
LEMUR-2-HUBBLE-4,2025-135AP,2026-06-13T14:02:01.803840,14.93187722,.00011706,97.7696,278.5346,332.0060,28.1096,0,U,64565,999,5333,.15303331E-3,.1542E-4,0
LEMUR-2-SEJONG-2,2025-135BL,2026-06-13T13:27:50.842368,14.96672821,.00041417,97.7689,279.6070,355.6910,4.4275,0,U,64586,999,5340,.35492013E-3,.3992E-4,0
LEMUR-2-HUBBLE-5,2025-135BT,2026-06-13T14:35:35.162304,14.94127275,.00053692,97.7714,279.1856,6.9600,353.1694,0,U,64840,999,5337,.16930785E-3,.1754E-4,0
LEMUR-2-KARENDARRELL,2025-135BU,2026-06-13T13:59:18.029184,15.00063129,.00094204,97.7675,280.7969,216.0569,144.0020,0,U,64841,999,5347,.67594709E-3,.8372E-4,0
LEMUR-2-LUCILLE-ROSE,2025-135BV,2026-06-13T13:21:36.897120,15.00113507,.00108624,97.7772,280.7861,296.9669,63.0444,0,U,65403,999,4809,.59226378E-3,.7338E-4,0
LEMUR-2-AFFIE-WAUWIE,2025-248C,2026-06-13T04:42:22.268448,15.27025697,.00078611,45.3883,136.6090,56.5592,303.6048,0,U,66295,999,3398,.55125581E-3,.1463E-3,0
LEMUR-2-STAS-GORBUK,2025-276W,2026-06-13T13:48:21.682080,15.19345449,.00054668,97.4254,238.1657,27.5401,332.6122,0,U,66686,999,2986,.2800996E-3,.5855E-4,0
